[Satellite]
VERSION=1.1
NAME=PICOSAT 5
NICKNAME=PICOSAT 5
TLE1=1 26093U 00004L   11059.93785894  .00000252  00000-0  88623-4 0  8723
TLE2=2 26093 100.1995  21.8414 0032391 177.4185 182.7110 14.45358335581856
